API VERSION: 1.2
API SOURCE: NASA/JPL Horizons API



*******************************************************************************
Ephemeris / API_USER Wed Apr 15 12:09:54 2026 Pasadena, USA      / Horizons
*******************************************************************************
Target body name: Mars (499)                      {source: mar099}
Center body name: Sun (10)                        {source: DE441}
Center-site name: BODY CENTER
*******************************************************************************
Start time      : A.D. 1900-Jan-01 00:00:00.0000 TDB
Stop  time      : A.D. 1999-Dec-18 00:00:00.0000 TDB
Step-size       : 43200 minutes
*******************************************************************************
Center geodetic : 0.0, 0.0, 0.0                   {E-lon(deg),Lat(deg),Alt(km)}
Center cylindric: 0.0, 0.0, 0.0                   {E-lon(deg),Dxy(km),Dz(km)}
Center radii    : 695700.0, 695700.0, 695700.0 km {Equator_a, b, pole_c}
Output units    : AU-D
Calendar mode   : Mixed Julian/Gregorian
Output type     : GEOMETRIC cartesian states
Output format   : 3 (position, velocity, LT, range, range-rate)
Reference frame : Ecliptic of J2000.0
*******************************************************************************
            JDTDB,            Calendar Date (TDB),                      X,                      Y,                      Z,                     VX,                     VY,                     VZ,                     LT,                     RG,                     RR,
**************************************************************************************************************************************************************************************************************************************************************************
$$SOE
2428520.500000000, A.D. 1936-Dec-18 00:00:00.0000, -1.622437163998919E+00,  3.586336945631225E-01,  4.760480948065659E-02, -2.491251239307929E-03, -1.247269990123790E-02, -1.994294854214119E-04,  9.600549280604194E-03,  1.662283578661156E+00, -2.651326521914963E-04,
2428550.500000000, A.D. 1937-Jan-17 00:00:00.0000, -1.649353123365317E+00, -2.231672918772680E-02,  4.029831440120434E-02,  7.175371552934105E-04, -1.280111480469707E-02, -2.856103721044131E-04,  9.529583748092610E-03,  1.649996277601905E+00, -5.510938204717105E-04,
2428580.500000000, A.D. 1937-Feb-16 00:00:00.0000, -1.578840269270642E+00, -4.018348732077496E-01,  3.061372410557815E-02,  3.980086250910637E-03, -1.236998875216966E-02, -3.572262661933749E-04,  9.410985262177039E-03,  1.629461586322333E+00, -8.126387413917943E-04,
2428610.500000000, A.D. 1937-Mar-18 00:00:00.0000, -1.411558871986756E+00, -7.565406753784373E-01,  1.905662481341999E-02,  7.140510603944401E-03, -1.114195828269915E-02, -4.096412063359267E-04,  9.250237548502767E-03,  1.601628982484977E+00, -1.035016752435950E-03,
2428640.500000000, A.D. 1937-Apr-17 00:00:00.0000, -1.153282860495288E+00, -1.062198007282087E+00,  6.276906641455096E-03,  1.001236489741477E-02, -9.099768114276308E-03, -4.378866811547038E-04,  9.055536402921697E-03,  1.567917524152089E+00, -1.201646015364096E-03,
2428670.500000000, A.D. 1937-May-17 00:00:00.0000, -8.159198636465473E-01, -1.294585168342475E+00, -6.924240180237212E-03,  1.237277187716307E-02, -6.265679836925617E-03, -4.369174032956915E-04,  8.838098010284465E-03,  1.530269233529638E+00, -1.294353171350368E-03,
2428700.500000000, A.D. 1937-Jun-16 00:00:00.0000, -4.185799251713581E-01, -1.431092978041797E+00, -1.960122826187698E-02,  1.396642258735625E-02, -2.730461763966006E-03, -4.023191886961130E-04,  8.612342617980648E-03,  1.491180899054965E+00, -1.294701075688098E-03,
2428730.500000000, A.D. 1937-Jul-16 00:00:00.0000,  1.174238797067513E-02, -1.453294370279884E+00, -3.070111238374493E-02,  1.452908194088485E-02,  1.312155431950012E-03, -3.316188943003276E-04,  8.395674887264433E-03,  1.453666044407745E+00, -1.187453557765608E-03,
2428760.500000000, A.D. 1937-Aug-15 00:00:00.0000,  4.406040648819732E-01, -1.350481280991457E+00, -3.914852278561463E-02,  1.383971616261292E-02,  5.538606342283116E-03, -2.261276084130554E-04,  8.207465203470108E-03,  1.421078547841441E+00, -9.662354204341298E-04,
2428790.500000000, A.D. 1937-Sep-14 00:00:00.0000,  8.285532848132837E-01, -1.123597356297602E+00, -4.398817048854445E-02,  1.180015858410725E-02,  9.500841161105351E-03, -9.279746749076188E-05,  8.066946879886924E-03,  1.396748554320631E+00, -6.400420902211843E-04,
2428820.500000000, A.D. 1937-Oct-14 00:00:00.0000,  1.136093220148018E+00, -7.881771467297327E-01, -4.456910057731980E-02,  8.516891409108386E-03,  1.269046917001744E-02,  5.509643314347014E-05,  7.990106439437475E-03,  1.383444044484484E+00, -2.376755274217085E-04,
2428850.500000000, A.D. 1937-Nov-13 00:00:00.0000,  1.330507104249763E+00, -3.744217160078003E-01, -4.071493602164679E-02,  4.333982011119876E-03,  1.466162269654875E-02,  1.997203841873805E-04,  7.986308731829317E-03,  1.382786491795665E+00,  1.942688368120561E-04,
2428880.500000000, A.D. 1937-Dec-13 00:00:00.0000,  1.392352941671481E+00,  7.673331588887052E-02, -3.280195130084566E-02, -2.253927087577450E-04,  1.516327788980407E-02,  3.228934012339830E-04,  8.055990360069713E-03,  1.394851491721492E+00,  6.015772019576507E-04,
2428910.500000000, A.D. 1938-Jan-12 00:00:00.0000,  1.318917458476708E+00,  5.207115026956619E-01, -2.169601394395120E-02, -4.594959033317373E-03,  1.420647074653258E-02,  4.108518401572611E-04,  8.190561555759639E-03,  1.418151771967757E+00,  9.365620939890810E-04,
2428940.500000000, A.D. 1938-Feb-11 00:00:00.0000,  1.123290909361506E+00,  9.168822977489706E-01, -8.570948438357720E-03, -8.307218880602599E-03,  1.202989238074252E-02,  4.570402824739104E-04,  8.374559487197541E-03,  1.450010026219393E+00,  1.168719262441239E-03,
2428970.500000000, A.D. 1938-Mar-13 00:00:00.0000,  8.300212869363639E-01,  1.233939218470511E+00,  5.311468676853915E-03, -1.107189669019614E-02,  8.997180364046809E-03,  4.618957145723371E-04,  8.588973580194285E-03,  1.487134675591494E+00,  1.287386504578360E-03,
2429000.500000000, A.D. 1938-Apr-12 00:00:00.0000,  4.696219154149051E-01,  1.451994396238155E+00,  1.878096115129088E-02, -1.277650801292790E-02,  5.490782514770681E-03,  4.306392477190740E-04,  8.814404506626648E-03,  1.526166830542040E+00,  1.297725161110076E-03,
2429030.500000000, A.D. 1938-May-12 00:00:00.0000,  7.386345025443400E-02,  1.562008712757627E+00,  3.086318316514889E-02, -1.344034460933485E-02,  1.844054135438706E-03,  3.707257055783102E-04,  9.033249595518881E-03,  1.564058683070847E+00,  1.214225653301273E-03,
2429060.500000000, A.D. 1938-Jun-11 00:00:00.0000, -3.273390775440388E-01,  1.563850563396687E+00,  4.081611518155278E-02, -1.315925615063746E-02, -1.683788400018142E-03,  2.899487661344138E-04,  9.230798690311577E-03,  1.598263248523857E+00,  1.055007624869582E-03,
2429090.500000000, A.D. 1938-Jul-11 00:00:00.0000, -7.075333325703278E-01,  1.464072496299526E+00,  4.812315658997602E-02, -1.206249955069619E-02, -4.904364746491287E-03,  1.954432215458764E-04,  9.395523203794992E-03,  1.626784413903386E+00,  8.382673832951774E-04,
2429120.500000000, A.D. 1938-Aug-10 00:00:00.0000, -1.044301088561151E+00,  1.274004423801842E+00,  5.246739097252710E-02, -1.028675526759075E-02, -7.684623012769254E-03,  9.337451374283693E-05,  9.518931821705450E-03,  1.648151953720328E+00,  5.807262644373476E-04,
2429150.500000000, A.D. 1938-Sep-09 00:00:00.0000, -1.319272787524175E+00,  1.008356172886891E+00,  5.370277204899972E-02, -7.964169570980822E-03, -9.929536580934036E-03, -1.100199730251468E-05,  9.595266928562310E-03,  1.661368967757208E+00,  2.972318953600429E-04,
2429180.500000000, A.D. 1938-Oct-09 00:00:00.0000, -1.517935222237015E+00,  6.843067908510680E-01,  5.183020954789989E-02, -5.219845968219421E-03, -1.156739875000913E-02, -1.130958417576468E-04,  9.621204887753171E-03,  1.665859986173629E+00,  1.126596194767897E-06,
2429210.500000000, A.D. 1938-Nov-08 00:00:00.0000, -1.629459665532687E+00,  3.209735005012738E-01,  4.698222085042772E-02, -2.175225742159722E-03, -1.253935067136448E-02, -2.086723205984646E-04,  9.595655007182777E-03,  1.661436161487397E+00, -2.950222037638182E-04,
2429240.500000000, A.D. 1938-Dec-08 00:00:00.0000, -1.646687238414632E+00, -6.087473583566769E-02,  3.941660318699185E-02,  1.045150679547367E-03, -1.279352335625869E-02, -2.935693670023698E-04,  9.519691161190209E-03,  1.648283429276491E+00, -5.786659149858679E-04,
2429270.500000000, A.D. 1939-Jan-07 00:00:00.0000, -1.566351082198883E+00, -4.389959985035202E-01,  2.951809080063659E-02,  4.304740736097265E-03, -1.228381116948092E-02, -3.634505995129833E-04,  9.396618375501318E-03,  1.626974037006193E+00, -8.364729231320782E-04,
2429300.500000000, A.D. 1939-Feb-06 00:00:00.0000, -1.389586325651530E+00, -7.898981280274114E-01,  1.780635862605826E-02,  7.444920277947082E-03, -1.097425945469380E-02, -4.136412255358555E-04,  9.232173325050122E-03,  1.598501259150723E+00, -1.053598080335893E-03,
2429330.500000000, A.D. 1939-Mar-08 00:00:00.0000, -1.122737424712538E+00, -1.089297355906714E+00,  4.946430192717566E-03,  1.027568598897145E-02, -8.850652149736352E-03, -4.391482722019271E-04,  9.034824294246917E-03,  1.564331333703685E+00, -1.213347463566728E-03,
2429360.500000000, A.D. 1939-Apr-07 00:00:00.0000, -7.783932402040091E-01, -1.313051646836656E+00, -8.245368652462183E-03,  1.257052676467586E-02, -5.940843520055420E-03, -4.349594644087648E-04,  8.816075990817499E-03,  1.526456239058285E+00, -1.297510036651020E-03,
2429390.500000000, A.D. 1939-May-07 00:00:00.0000, -3.764371620311409E-01, -1.438845697680300E+00, -2.081067495325033E-02,  1.407194808512338E-02, -2.344376448302845E-03, -3.967922919734271E-04,  8.590615082328557E-03,  1.487418892875567E+00, -1.287969871025347E-03,
